
# Worst residual: 12.24 km
# MJD 60928.000000 (2025 Sep 10  0:00)
TESS = 2018-038A = NORAD 43435
1 43435U 18038A   25253.49919926  .00000000  00000-0  00000-0 2 25489
2 43435 056.0705 045.7262 4464330 091.6196 226.5990 00.07607673    05

# Worst residual: 11.65 km
# MJD 60929.000000 (2025 Sep 11  0:00)
TESS = 2018-038A = NORAD 43435
1 43435U 18038A   25254.49919926  .00000000  00000-0  00000-0 2 25480
2 43435 056.1123 045.6332 4467192 091.4889 254.3571 00.07596733    01

# Worst residual: 13.02 km
# MJD 60930.000000 (2025 Sep 12  0:00)
TESS = 2018-038A = NORAD 43435
1 43435U 18038A   25255.49919926  .00000000  00000-0  00000-0 2 25481
2 43435 056.1733 045.5561 4470925 091.3159 282.0606 00.07577432    00

# Worst residual: 16.20 km
# MJD 60931.000000 (2025 Sep 13  0:00)
TESS = 2018-038A = NORAD 43435
1 43435U 18038A   25256.49919926  .00000000  00000-0  00000-0 2 25482
2 43435 056.2321 045.5202 4474713 090.9194 309.7737 00.07534083    06

# Worst residual: 18.86 km
# MJD 60932.000000 (2025 Sep 14  0:00)
TESS = 2018-038A = NORAD 43435
1 43435U 18038A   25257.49919926  .00000000  00000-0  00000-0 2 25483
2 43435 056.2294 045.5154 4480360 090.2881 337.2576 00.07473310    04

# Worst residual: 11.66 km
# MJD 60933.000000 (2025 Sep 15  0:00)
TESS = 2018-038A = NORAD 43435
1 43435U 18038A   25258.49919926  .00000000  00000-0  00000-0 2 25484
2 43435 056.2067 045.4679 4460760 090.1546 004.2220 00.07504838    09

# Worst residual: 3.77 km
# MJD 60934.000000 (2025 Sep 16  0:00)
TESS = 2018-038A = NORAD 43435
1 43435U 18038A   25259.49919926  .00000000  00000-0  00000-0 2 25485
2 43435 056.2221 045.4454 4453478 090.1941 031.2865 00.07517144    08

# Worst residual: 3.84 km
# MJD 60935.000000 (2025 Sep 17  0:00)
TESS = 2018-038A = NORAD 43435
1 43435U 18038A   25260.49919926  .00000000  00000-0  00000-0 2 25487
2 43435 056.2227 045.4441 4452841 090.2987 058.2589 00.07508474    02

# Worst residual: 6.92 km
# MJD 60936.000000 (2025 Sep 18  0:00)
TESS = 2018-038A = NORAD 43435
1 43435U 18038A   25261.49919926  .00000000  00000-0  00000-0 2 25488
2 43435 056.1962 045.4230 4447431 090.4159 085.2162 00.07500672    04

# Worst residual: 9.84 km
# MJD 60937.000000 (2025 Sep 19  0:00)
TESS = 2018-038A = NORAD 43435
1 43435U 18038A   25262.49919926  .00000000  00000-0  00000-0 2 25489
2 43435 056.1544 045.3602 4435474 090.5598 112.1675 00.07490471    08

# Worst residual: 11.81 km
# MJD 60938.000000 (2025 Sep 20  0:00)
TESS = 2018-038A = NORAD 43435
1 43435U 18038A   25263.49919926  .00000000  00000-0  00000-0 2 25480
2 43435 056.1126 045.2488 4415242 090.7181 139.1062 00.07475183    08

# Worst residual: 13.49 km
# MJD 60939.000000 (2025 Sep 21  0:00)
TESS = 2018-038A = NORAD 43435
1 43435U 18038A   25264.49919926  .00000000  00000-0  00000-0 2 25481
2 43435 056.0867 045.0987 4387826 090.8465 166.0241 00.07454639    04

# Worst residual: 14.19 km
# MJD 60940.000000 (2025 Sep 22  0:00)
TESS = 2018-038A = NORAD 43435
1 43435U 18038A   25265.49919926  .00000000  00000-0  00000-0 2 25482
2 43435 056.0870 044.9278 4354854 090.9073 192.9011 00.07429080    05

# Worst residual: 14.23 km
# MJD 60941.000000 (2025 Sep 23  0:00)
TESS = 2018-038A = NORAD 43435
1 43435U 18038A   25266.49919926  .00000000  00000-0  00000-0 2 25483
2 43435 056.1169 044.7581 4320278 090.8696 219.7194 00.07400718    02

# Worst residual: 13.35 km
# MJD 60942.000000 (2025 Sep 24  0:00)
TESS = 2018-038A = NORAD 43435
1 43435U 18038A   25267.49919926  .00000000  00000-0  00000-0 2 25484
2 43435 056.1730 044.6104 4288491 090.7312 246.4576 00.07372498    04

# Worst residual: 12.38 km
# MJD 60943.000000 (2025 Sep 25  0:00)
TESS = 2018-038A = NORAD 43435
1 43435U 18038A   25268.49919926  .00000000  00000-0  00000-0 2 25485
2 43435 056.2433 044.5063 4263572 090.5360 273.0731 00.07349370    04

# Worst residual: 9.64 km
# MJD 60944.000000 (2025 Sep 26  0:00)
TESS = 2018-038A = NORAD 43435
1 43435U 18038A   25269.49919926  .00000000  00000-0  00000-0 2 25486
2 43435 056.3117 044.4526 4247133 090.3517 299.5604 00.07336026    00

# Worst residual: 6.93 km
# MJD 60945.000000 (2025 Sep 27  0:00)
TESS = 2018-038A = NORAD 43435
1 43435U 18038A   25270.49919926  .00000000  00000-0  00000-0 2 25488
2 43435 056.3564 044.4449 4236538 090.2626 325.9339 00.07338406    00

# Worst residual: 3.76 km
# MJD 60946.000000 (2025 Sep 28  0:00)
TESS = 2018-038A = NORAD 43435
1 43435U 18038A   25271.49919926  .00000000  00000-0  00000-0 2 25489
2 43435 056.3653 044.4496 4226380 090.2669 352.3193 00.07355279    01

# Worst residual: 3.99 km
# MJD 60947.000000 (2025 Sep 29  0:00)
TESS = 2018-038A = NORAD 43435
1 43435U 18038A   25272.49919926  .00000000  00000-0  00000-0 2 25480
2 43435 056.3700 044.4316 4218799 090.2647 018.8407 00.07369801    04

# Worst residual: 3.38 km
# MJD 60948.000000 (2025 Sep 30  0:00)
TESS = 2018-038A = NORAD 43435
1 43435U 18038A   25273.49919926  .00000000  00000-0  00000-0 2 25481
2 43435 056.3924 044.4214 4215208 090.2988 045.3905 00.07372836    09

# Worst residual: 9.98 km
# MJD 60949.000000 (2025 Oct  1  0:00)
TESS = 2018-038A = NORAD 43435
1 43435U 18038A   25274.49919926  .00000000  00000-0  00000-0 2 25482
2 43435 056.3832 044.4157 4205814 090.4142 071.9318 00.07369789    05

# Worst residual: 12.01 km
# MJD 60950.000000 (2025 Oct  2  0:00)
TESS = 2018-038A = NORAD 43435
1 43435U 18038A   25275.49919926  .00000000  00000-0  00000-0 2 25483
2 43435 056.3332 044.3643 4186108 090.4658 098.6897 00.07370903    03

# Worst residual: 17.69 km
# MJD 60951.000000 (2025 Oct  3  0:00)
TESS = 2018-038A = NORAD 43435
1 43435U 18038A   25276.49919926  .00000000  00000-0  00000-0 2 25484
2 43435 056.2862 044.2788 4163375 090.3420 125.7931 00.07375870    05

# Worst residual: 19.38 km
# MJD 60952.000000 (2025 Oct  4  0:00)
TESS = 2018-038A = NORAD 43435
1 43435U 18038A   25277.49919926  .00000000  00000-0  00000-0 2 25485
2 43435 056.2632 044.2014 4144034 090.0714 153.1363 00.07377990    05

# Worst residual: 19.17 km
# MJD 60953.000000 (2025 Oct  5  0:00)
TESS = 2018-038A = NORAD 43435
1 43435U 18038A   25278.49919926  .00000000  00000-0  00000-0 2 25486
2 43435 056.2572 044.1421 4129182 089.7266 180.5503 00.07372599    03

# Worst residual: 18.30 km
# MJD 60954.000000 (2025 Oct  6  0:00)
TESS = 2018-038A = NORAD 43435
1 43435U 18038A   25279.49919926  .00000000  00000-0  00000-0 2 25487
2 43435 056.2615 044.0883 4118002 089.3541 207.9118 00.07358483    05

# Worst residual: 17.17 km
# MJD 60955.000000 (2025 Oct  7  0:00)
TESS = 2018-038A = NORAD 43435
1 43435U 18038A   25280.49919926  .00000000  00000-0  00000-0 2 25489
2 43435 056.2797 044.0234 4108914 088.9688 235.1461 00.07335341    06

# Worst residual: 18.13 km
# MJD 60956.000000 (2025 Oct  8  0:00)
TESS = 2018-038A = NORAD 43435
1 43435U 18038A   25281.49919926  .00000000  00000-0  00000-0 2 25480
2 43435 056.3176 043.9517 4102347 088.5394 262.2412 00.07302555    02

# Worst residual: 21.58 km
# MJD 60957.000000 (2025 Oct  9  0:00)
TESS = 2018-038A = NORAD 43435
1 43435U 18038A   25282.49919926  .00000000  00000-0  00000-0 2 25481
2 43435 056.3825 043.8838 4096379 087.9571 289.2160 00.07252910    03

# Worst residual: 26.90 km
# MJD 60958.000000 (2025 Oct 10  0:00)
TESS = 2018-038A = NORAD 43435
1 43435U 18038A   25283.49919926  .00000000  00000-0  00000-0 2 25482
2 43435 056.4493 043.8552 4094687 087.0183 316.0757 00.07174561    04

# Worst residual: 28.18 km
# MJD 60959.000000 (2025 Oct 11  0:00)
TESS = 2018-038A = NORAD 43435
1 43435U 18038A   25284.49919926  .00000000  00000-0  00000-0 2 25483
2 43435 056.4471 043.8486 4087454 086.1468 342.2768 00.07128436    09

# Worst residual: 8.77 km
# MJD 60960.000000 (2025 Oct 12  0:00)
TESS = 2018-038A = NORAD 43435
1 43435U 18038A   25285.49919926  .00000000  00000-0  00000-0 2 25484
2 43435 056.4326 043.8046 4047046 086.0783 008.0388 00.07197338    04

# Worst residual: 6.16 km
# MJD 60961.000000 (2025 Oct 13  0:00)
TESS = 2018-038A = NORAD 43435
1 43435U 18038A   25286.49919926  .00000000  00000-0  00000-0 2 25485
2 43435 056.4445 043.7871 4043994 086.2116 033.9049 00.07196990    05

# Worst residual: 4.08 km
# MJD 60962.000000 (2025 Oct 14  0:00)
TESS = 2018-038A = NORAD 43435
1 43435U 18038A   25287.49919926  .00000000  00000-0  00000-0 2 25486
2 43435 056.4497 043.7861 4050317 086.4287 059.5351 00.07174041    02

# Worst residual: 3.21 km
# MJD 60963.000000 (2025 Oct 15  0:00)
TESS = 2018-038A = NORAD 43435
1 43435U 18038A   25288.49919926  .00000000  00000-0  00000-0 2 25487
2 43435 056.4411 043.7810 4053551 086.5472 085.1648 00.07162989    04

# Worst residual: 2.24 km
# MJD 60964.000000 (2025 Oct 16  0:00)
TESS = 2018-038A = NORAD 43435
1 43435U 18038A   25289.49919926  .00000000  00000-0  00000-0 2 25488
2 43435 056.4209 043.7575 4054371 086.5878 110.8947 00.07160871    04

# Worst residual: 4.61 km
# MJD 60965.000000 (2025 Oct 17  0:00)
TESS = 2018-038A = NORAD 43435
1 43435U 18038A   25290.49919926  .00000000  00000-0  00000-0 2 25480
2 43435 056.3968 043.7096 4051074 086.5993 136.7321 00.07160133    02

# Worst residual: 6.64 km
# MJD 60966.000000 (2025 Oct 18  0:00)
TESS = 2018-038A = NORAD 43435
1 43435U 18038A   25291.49919926  .00000000  00000-0  00000-0 2 25481
2 43435 056.3771 043.6370 4041170 086.5901 162.6575 00.07155022    03

# Worst residual: 8.60 km
# MJD 60967.000000 (2025 Oct 19  0:00)
TESS = 2018-038A = NORAD 43435
1 43435U 18038A   25292.49919926  .00000000  00000-0  00000-0 2 25482
2 43435 056.3697 043.5503 4023552 086.5300 188.6402 00.07142152    01

# Worst residual: 9.77 km
# MJD 60968.000000 (2025 Oct 20  0:00)
TESS = 2018-038A = NORAD 43435
1 43435U 18038A   25293.49919926  .00000000  00000-0  00000-0 2 25483
2 43435 056.3780 043.4564 3998814 086.3783 214.6412 00.07120058    06

# Worst residual: 10.24 km
# MJD 60969.000000 (2025 Oct 21  0:00)
TESS = 2018-038A = NORAD 43435
1 43435U 18038A   25294.49919926  .00000000  00000-0  00000-0 2 25484
2 43435 056.4028 043.3686 3970222 086.1004 240.6089 00.07089730    03
